HST                     
1 20580U 90037B   21079.86815909  .00000699  00000-0  31402-4 0  9997
2 20580  28.4697 291.2029 0002674 185.8580 297.7799 15.09588305497691
POLAR                   
1 23802U 96013A   21077.86798274  .00000225  00000-0  00000+0 0  9990
2 23802  78.7095 246.4593 6078804 274.2170  22.7825  1.29846384119958
SWAS                    
1 25560U 98071A   21080.31768294  .00000244  00000-0  31360-4 0  9991
2 25560  69.8994  46.9764 0011141 278.9728  81.0167 14.94024416210351
CXO                     
1 25867U 99040B   21080.84185142  .00000858  00000-0  00000-0 0  9995
2 25867  57.1161 258.5716 8184775 226.3027   0.4122  0.37805244 10112
XMM-NEWTON              
1 25989U 99066A   21080.76732061  .00000187  00000-0  00000-0 0  9992
2 25989  70.9171 314.0721 6716378  91.1392 359.8340  0.50130875 13400
TERRA                   
1 25994U 99068A   21080.40052494  .00000063  00000-0  23875-4 0  9998
2 25994  98.1824 156.4119 0001235  95.5054 327.8093 14.57126511130525
CLUSTER II-FM7 (SAMBA)  
1 26410U 00041A   21081.53785307 -.00000086  00000-0  00000-0 0  9993
2 26410 132.5529 343.8040 4772198 190.1605   0.3661  0.44214502 11813
CLUSTER II-FM6 (SALSA)  
1 26411U 00041B   21081.60643596 -.00000224  00000-0  00000-0 0  9999
2 26411 133.1011 345.4784 6222195 195.1626   0.4411  0.44218785 11852
CLUSTER II-FM5 (RUMBA)  
1 26463U 00045A   21081.60353383 -.00000137  00000-0  00000-0 0  9995
2 26463 136.7405 345.3939 5791822 195.3023   0.4229  0.44218802 11741
CLUSTER II-FM8 (TANGO)  
1 26464U 00045B   21081.53733753 -.00000086  00000-0  00000-0 0  9994
2 26464 132.5465 343.7980 4771623 190.1474   0.3693  0.44220084 11827
ODIN                    
1 26702U 01007A   21080.11897955  .00000926  00000-0  63537-4 0  9996
2 26702  97.5431  98.2690 0012079  47.6217 312.6032 15.08365301 97913
TIMED                   
1 26998U 01055B   21080.35305295  .00000130  00000-0  18068-4 0  9999
2 26998  74.0707 101.9388 0000771 245.5724 114.5376 14.88281489 45622
RHESSI                  
1 27370U 02004A   21080.02058282  .00004554  00000-0  13756-3 0  9996
2 27370  38.0323 283.8389 0010005  73.1318 287.0550 15.34383764 56800
INTEGRAL                
1 27540U 02048A   21080.14157619  .00000193  00000-0  00000+0 0  9999
2 27540  61.6925  91.3124 9000452 298.2985   1.5156  0.37573393 19437
CORIOLIS                
1 27640U 03001A   21080.02239164 -.00000005  00000-0  18675-4 0  9998
2 27640  98.7253  91.1883 0013511 325.4939  93.0213 14.19064336942663
SORCE                   
1 27651U 03004A   21080.41132422  .00000251  00000-0  40101-4 0  9996
2 27651  39.9948 225.3770 0021920 170.9303 189.1886 14.89259717985497
MOST                    
1 27843U 03031D   21079.99678083 -.00000001  00000-0  19855-4 0  9994
2 27843  98.7115  89.2480 0010379  22.2256 337.9368 14.20631147918867
SCISAT 1                
1 27858U 03036A   21080.23201602  .00000082  00000-0  16553-4 0  9993
2 27858  73.9357 358.7127 0007277 151.0462 209.1118 14.77336368948507
SWIFT                   
1 28485U 04047A   21079.78804462  .00001159  00000-0  48535-4 0  9995
2 28485  20.5561 250.0394 0010989 313.8663  46.0863 15.04908040895121
FORMOSAT-3 FM6          
1 29047U 06011A   21079.96211830  .00000033  00000-0  29417-4 0  9992
2 29047  71.9765 265.5973 0051598 303.7608  55.8618 14.28801674780808
FORMOSAT-3 FM1          
1 29048U 06011B   21080.33728923  .00000074  00000-0  45631-4 0  9993
2 29048  71.9673 175.4174 0045703 263.1009  96.4927 14.28759529783330
FORMOSAT-3 FM5          
1 29049U 06011C   21080.18342807  .00000133  00000-0  68698-4 0  9994
2 29049  72.0228 348.9560 0036701 286.2221  73.4878 14.28840420779094
FORMOSAT-3 FM3          
1 29050U 06011D   21080.35079305  .00000170  00000-0  46027-4 0  9998
2 29050  72.0141 106.3866 0050071 184.1373 175.9374 14.59033483796708
FORMOSAT-3 FM4          
1 29051U 06011E   21079.96681166  .00000111  00000-0  58628-4 0  9993
2 29051  72.0035 250.9126 0068129 168.0808 192.1962 14.28874434781650
FORMOSAT-3 FM2          
1 29052U 06011F   21079.87622387  .00000076  00000-0  45805-4 0  9997
2 29052  72.0357 326.1333 0041882 247.2063 112.4647 14.28981030779174
CLOUDSAT                
1 29107U 06016A   21080.34937175  .00000131  00000-0  35397-4 0  9998
2 29107  98.2687  33.1880 0000827  99.9892 260.1403 14.62346845792790
CALIPSO                 
1 29108U 06016B   21080.32724042  .00000189  00000-0  46813-4 0  9992
2 29108  98.2665  32.9385 0001403  78.8006 281.3352 14.62518280792789
HINODE (SOLAR-B)        
1 29479U 06041A   21080.02065734  .00000073  00000-0  22791-4 0  9995
2 29479  98.1409  95.5555 0018605 208.8153 151.2024 14.64538702774389
SJ-6C                   
1 29505U 06046A   21080.42605059  .00000574  00000-0  57721-4 0  9991
2 29505  97.8068  99.0384 0004404 170.5646 189.5645 14.95084944784998
SJ-6D                   
1 29506U 06046B   21080.50048594 -.00000634  00000-0 -54700-4 0  9999
2 29506  97.8264  99.3173 0000756 319.9887  40.1270 14.93582640784527
AGILE                   
1 31135U 07013A   21079.95038213  .00003745  00000-0  77594-4 0  9999
2 31135   2.4666 190.8478 0011516 181.8297 178.1715 15.33254028407156
AIM                     
1 31304U 07015A   21080.25659307  .00001480  00000-0  84968-4 0  9994
2 31304  97.8772 338.9280 0006287 121.5033 238.6813 15.14205774762567
FGRST (GLAST)           
1 33053U 08029A   21080.21130061  .00000688  00000-0  22567-4 0  9996
2 33053  25.5837  15.4904 0012113 332.4220  27.5672 15.11482213705136
WISE                    
1 36119U 09071A   21080.05578901  .00001396  00000-0  49580-4 0  9992
2 36119  97.2957 118.1559 0004149 108.5967 251.5725 15.30686542626107
SDO                     
1 36395U 10005A   21080.10851869 -.00000064  00000-0  00000-0 0  9992
2 36395  30.8029 116.6628 0001010 285.7217  73.5628  1.00275738 40866
CRYOSAT 2               
1 36508U 10013A   21080.38179493  .00000117  00000-0  28382-4 0  9998
2 36508  92.0207 174.6535 0005919  13.0272 347.1087 14.51909669580412
X-SAT                   
1 37389U 11015C   21080.56696104 -.00000040  00000-0  73923-6 0  9991
2 37389  98.3953 130.3371 0013562 194.8352 165.2413 14.24386717515732
GCOM-W1 (SHIZUKU)       
1 38337U 12025A   21080.35992608  .00000081  00000-0  27950-4 0  9993
2 38337  98.2089  22.3376 0001545 116.3044 355.0523 14.57157319470332
NUSTAR                  
1 38358U 12031A   21080.32913719  .00001174  00000-0  48658-4 0  9998
2 38358   6.0272  57.5610 0012227 281.2760  78.5995 14.88477177477274
NEOSSAT                 
1 39089U 13009D   21080.17876356  .00000056  00000-0  35070-4 0  9996
2 39089  98.4490 282.1982 0011242 179.8785 180.2405 14.34552171422227
IRIS                    
1 39197U 13033A   21080.15374890  .00000151  00000-0  27529-4 0  9993
2 39197  97.9641 265.3171 0028743  56.8906 303.5058 14.78830137416973
HISAKI (SPRINT-A)       
1 39253U 13049A   21079.90174970  .00000124  00000-0  81234-4 0  9994
2 39253  29.7192 229.5134 0137478 341.7535  17.8139 13.55242932372577
CASSIOPE                
1 39265U 13055A   21080.32406190  .00004361  00000-0  12227-3 0  9996
2 39265  80.9699  24.5573 0651286 212.3267 143.6412 14.31547519387385
STSAT-3                 
1 39422U 13066G   21080.55050582  .00000279  00000-0  34349-4 0  9992
2 39422  97.4866 105.0780 0022601 355.2152   4.8863 14.89930111398395
SWARM B                 
1 39451U 13067A   21080.36186439  .00000657  00000-0  27275-4 0  9995
2 39451  87.7609 196.9610 0001809 113.8455 246.2981 15.21956468392078
SWARM A                 
1 39452U 13067B   21080.36772594  .00002551  00000-0  52552-4 0  9990
2 39452  87.3642  29.8464 0003449  77.9530 282.2114 15.45354025411931
SWARM C                 
1 39453U 13067C   21080.36766013  .00002542  00000-0  52372-4 0  9990
2 39453  87.3494  30.2403 0003447  77.9820 282.1824 15.45354310411930
BRITE-CA1 (TORONTO)     
1 40020U 14033L   21080.05488978  .00000140  00000-0  32374-4 0  9995
2 40020  97.7367 258.5071 0085870 269.9584  89.1781 14.66718489361194
OCO 2                   
1 40059U 14035A   21080.33535961  .00000073  00000-0  26304-4 0  9996
2 40059  98.2075  23.0645 0001630  89.4999 270.6386 14.57111957357344
BRITE-PL2 (HEWELIUSZ)   
1 40119U 14049B   21080.27229347  .00000170  00000-0  26543-4 0  9992
2 40119  97.8855 175.7015 0015974 285.4788  74.4663 14.84616529356766
RESURS P2               
1 40360U 14087A   21080.59356405  .00001007  00000-0  32860-4 0  9992
2 40360  97.2283 169.9027 0007693 274.6267 192.3379 15.34072681348791
MMS 1                   
1 40482U 15011A   21076.33333333 -.00001319  00000-0  00000-0 0  9991
2 40482  32.7475 117.9484 8437111  30.0805  66.5041  0.28551400 12003
MMS 2                   
1 40483U 15011B   21076.12374156 -.00001316  00000-0  00000+0 0  9993
2 40483  32.7424 117.9402 8436866  30.0854  44.9814  0.28549567 11972
MMS 3                   
1 40484U 15011C   21075.73331763 -.00001310  00000-0  00000-0 0  9992
2 40484  32.7325 117.9393 8437980  30.0839   4.8583  0.28544685 11742
MMS 4                   
1 40485U 15011D   21075.66867301 -.00001309  00000-0  00000-0 0  9995
2 40485  32.7375 117.9610 8436738  30.0747 358.2107  0.28553470 11940
ASTROSAT                
1 40930U 15052A   21079.93836162  .00000804  00000-0  23743-4 0  9991
2 40930   5.9962 171.4990 0008865 223.2997 136.6433 14.76381426296073
DAMPE                   
1 41173U 15078A   21080.54120228  .00000088  00000-0  65326-5 0  9995
2 41173  97.3459  74.4688 0013999   2.5040 149.0426 15.23975798292593
PISAT                   
1 41784U 16059B   21080.38753471  .00000133  00000-0  34474-4 0  9997
2 41784  97.9792 134.7708 0032546 158.1823 202.0774 14.63598904239417
HXMT (HUIYAN)           
1 42758U 17034A   21080.16525788  .00000393  00000-0  37951-4 0  9998
2 42758  43.0194 317.7112 0010472 320.3019 182.2332 15.09106334207678
FLYING LAPTOP           
1 42831U 17042G   21080.59616986  .00000341  00000-0  39514-4 0  9997
2 42831  97.4838 314.9331 0015670  81.9169 278.3874 14.91256405200598
PICSAT                  
1 43132U 18004X   21080.17262362  .00002972  00000-0  12017-3 0  9990
2 43132  97.4153 155.5058 0010079 151.1035 209.0763 15.25476834177227
ZHANGZHENG-1 (CSES)     
1 43194U 18015C   21080.61918003  .00001502  00000-0  70776-4 0  9994
2 43194  97.4637 208.6918 0012290 217.1467 198.9007 15.21012145173798
ICON                    
1 44628U 19068A   21080.25210850  .00000696  00000-0  47527-4 0  9992
2 44628  26.9909  27.4964 0019247  98.3107 261.9633 14.91884510 78808
SALSAT                  
1 46495U 20068K   21080.60654964  .00000282  00000-0  25219-4 0  9990
2 46495  97.6878  18.6644 0017859  16.7378 343.4432 15.03384919 26134
